ONEWEB-0321             
1 49191U 21083F   25089.79644603  .00000052  00000+0  96344-4 0  9997
2 49191  87.9336   2.6948 0001897  67.5252 292.6082 13.20775792178304
ONEWEB-0324             
1 49193U 21083H   25089.86529475  .00000084  00000+0  18026-3 0  9991
2 49193  87.9088  63.5758 0001725  88.7467 271.3863 13.18684358171575
ONEWEB-0325             
1 49194U 21083J   25089.87003485 -.00000193  00000+0 -52279-3 0  9992
2 49194  87.9091  63.5919 0001950  81.1613 278.9740 13.18686409171586
ONEWEB-0326             
1 49195U 21083K   25089.35325109 -.00000269  00000+0 -71558-3 0  9991
2 49195  87.9085  63.6871 0002087  97.2806 262.8563 13.18684589171506
ONEWEB-0327             
1 49196U 21083L   25089.65650049 -.00000711  00000+0 -18372-2 0  9995
2 49196  87.9086  63.6542 0002078  93.8281 266.3089 13.18689616171566
ONEWEB-0328             
1 49197U 21083M   25089.86782490  .00000354  00000+0  93576-3 0  9996
2 49197  87.8943  48.3122 0001779  82.2318 277.9013 13.13469320172707
